ID,Name,Address,Phone,City
1,"Considine, Boyer and Lockman",0800 Southridge Road,+63-762-326-1778,Tignoan
2,"Boyer, Strosin and Strosin",24405 Cardinal Road,+62-436-575-0497,Purabaya
3,Stoltenberg Inc,20 Harbort Circle,+351-960-855-1471,Quintinha
4,"Hyatt, Romaguera and Blick",7 Corry Pass,+387-702-996-1523,Gornje Moštre
5,"White, Pfannerstill and Leuschke",1 Farwell Street,+47-562-725-4593,Bergen
6,"Bradtke, Kuhlman and Harber",0 Carberry Parkway,+94-542-961-4759,Badulla
7,Oberbrunner-Olson,1 Main Avenue,+351-798-998-4674,Vilarelho
8,Reilly-Senger,5536 Toban Court,+46-552-125-2031,Kumla
9,Schmidt LLC,597 Dryden Parkway,+385-749-447-7430,Zlatar
10,Schneider and Sons,25296 Judy Plaza,+86-366-908-1131,Linjiang
11,Mosciski-Douglas,3 Shasta Alley,+48-503-395-5994,Janów
12,Ebert-Mayert,89412 Mitchell Park,+7-265-552-4125,Komendantsky aerodrom
13,Blanda-Hermiston,3109 Pepper Wood Place,+62-100-717-9493,Mnelalete
14,"Walter, Grimes and Crona",9267 North Avenue,+33-547-191-5602,Noailles
15,Turcotte Group,39459 Dorton Pass,+375-111-762-2129,Loyew
16,"Stroman, Hyatt and Hoppe",40 Pearson Court,+86-683-256-7056,Chongmin
17,Jacobi-Green,86 Stang Terrace,+30-672-812-4836,Néos Mylótopos
18,Maggio-Bayer,32109 Chinook Parkway,+7-777-920-1171,Chesma
19,Renner Inc,66324 Goodland Terrace,+380-170-680-6309,Kuty
20,Muller-Lesch,6716 Fair Oaks Lane,+63-386-732-6301,Nueva Vida Sur
21,Doyle Inc,104 Buell Trail,+1-131-606-0734,Adstock
22,"Feest, Funk and Pagac",8 Marcy Street,+86-463-322-8722,Kefang
23,"Ryan, Rolfson and Dietrich",25395 Prairie Rose Avenue,+62-636-704-1934,Kembang
24,Kohler-Langosh,99362 School Court,+47-792-523-0475,Oslo
25,"Jast, Johns and Satterfield",4934 Barnett Way,+48-653-812-6178,Gardawice
26,"Monahan, Bode and Breitenberg",7625 Leroy Pass,+880-106-966-1499,Lalmanirhat
27,"Feeney, Beer and Graham",59740 Manley Road,+383-683-504-2249,Pristina
28,Brown and Sons,59 Sutherland Lane,+1-412-400-1059,Warwick
29,"Leuschke, Okuneva and Swift",74027 New Castle Drive,+54-110-369-4404,Inriville
30,"Marquardt, MacGyver and Hirthe",9264 Fuller Park,+86-253-161-2180,Dongshandi
31,Feest and Sons,8 Logan Crossing,+234-912-246-0334,Gora
32,Oberbrunner-Klein,65166 Sycamore Point,+52-715-506-7520,Las Palmas
33,Heidenreich-Medhurst,3 Rusk Hill,+62-361-174-4665,Kalibuntu
34,Collins and Sons,3 Waxwing Crossing,+52-853-482-3205,Primero de Mayo
35,Mayer Group,5 Ronald Regan Parkway,+57-499-531-3663,La Estrella
36,Reinger-Dach,99281 Farwell Trail,+55-443-961-6147,Riachão das Neves
37,"Greenholt, Bins and Cruickshank",59 Walton Park,+351-352-101-4120,Pisão
38,Padberg-Abernathy,46 Pepper Wood Drive,+62-252-152-6946,Kajisara
39,Jaskolski-Goodwin,4210 Eastwood Parkway,+52-617-960-6192,Los Fresnos
40,Schinner-Nolan,3050 Golf Course Plaza,+86-143-927-7452,Hongtu
41,"Spinka, Muller and Cummings",58 Boyd Center,+48-570-198-4719,Warsaw
42,Cole-Hilll,64 Debs Lane,+381-122-103-8694,Ostružnica
43,"Keeling, Tillman and Hermann",8 Welch Plaza,+994-104-211-7944,Yeni Suraxanı
44,Waelchi-Larkin,0 West Avenue,+86-771-120-5000,Chengxi
45,Wiza Group,46823 Riverside Lane,+62-593-361-2904,Sumurgung
46,Jast-Skiles,45772 Scofield Street,+55-956-691-3184,Lagoa Santa
47,Mills-Stracke,77880 Grover Place,+81-119-435-6832,Iwatsuki
48,Weissnat-Kuphal,7 Waubesa Place,+223-989-143-7309,Banamba
49,Klein Inc,79431 Morningstar Point,+30-658-345-1729,Eleftheroúpolis
50,Strosin Inc,601 Moose Hill,+41-828-607-2877,Thun
51,Hessel-Ernser,6638 Acker Crossing,+62-362-887-3228,Kendaruan
52,Hyatt LLC,53557 Dunning Crossing,+86-977-128-1346,Wuguishan
53,Pollich Group,63094 Green Ridge Circle,+62-899-320-0819,Cungkal
54,Langworth-Rohan,4 Forster Parkway,+92-324-762-3496,Mehmand Chak
55,"Deckow, Langworth and Hamill",02 Quincy Trail,+225-618-516-5792,Bingerville
56,Kuvalis-Kuphal,3121 Chive Parkway,+1-402-819-6736,Omaha
57,"Abbott, Toy and Fadel",6 Macpherson Alley,+86-264-430-4062,Qianpai
58,Schulist LLC,0 Green Hill,+7-147-606-7494,Aykhal
59,Hahn LLC,98 Arapahoe Hill,+33-340-728-4534,Gif-sur-Yvette
60,"Veum, Romaguera and Doyle",78 Lotheville Park,+86-907-261-0829,Yanshi
61,Ortiz LLC,14888 Comanche Parkway,+223-434-190-8441,Yélimané
62,"Wisozk, Fisher and Emard",56547 Spenser Avenue,+49-760-397-8160,Nürnberg
63,Fisher-Brown,4412 Lindbergh Center,+86-488-135-6229,Si’erbao
64,Barrows-Balistreri,241 Lawn Hill,+86-786-272-9720,Xinyang
65,Cruickshank and Sons,5973 Warrior Park,+57-743-610-1204,Cali
66,"Langworth, Denesik and Hackett",3533 Shelley Alley,+86-783-928-2802,Dawusu
67,Hilpert-Quigley,17347 6th Junction,+86-787-421-7789,Chengguan
68,"Hessel, Leffler and Feeney",6 Reinke Junction,+46-849-173-1060,Vänersborg
69,Wiza LLC,54 Dunning Plaza,+63-842-174-8254,Esperanza
70,"Schowalter, Walker and Hickle",8 Eagle Crest Avenue,+86-488-983-2268,Mubo
71,Barrows-Ward,123 Weeping Birch Junction,+63-887-740-4229,San Marcelino
72,Durgan Group,2134 Longview Pass,+86-682-461-2001,Muliang
73,"Ondricka, Pacocha and Padberg",054 Brentwood Circle,+1-847-676-9179,Santa Rita Village
74,Trantow-Metz,639 Bultman Crossing,+976-143-779-7443,Bayshint
75,Paucek-Jaskolski,92 Shoshone Plaza,+86-552-790-8688,Longchiqiao
76,Wisoky-Kuhn,15623 Portage Plaza,+86-920-701-5130,Tiechanggou
77,Mueller and Sons,346 Rigney Street,+977-639-972-7846,Bharatpur
78,"Turner, McKenzie and Renner",22797 Huxley Circle,+62-754-725-6174,Jawatiwa
79,"Emard, Torp and Kassulke",5 Oak Valley Way,+351-436-469-5885,Miratejo
80,"Prohaska, Parker and Goldner",40811 Vahlen Place,+62-285-280-6083,Sukoanyar
81,Morissette Inc,29 Reindahl Parkway,+420-592-396-9632,Netolice
82,"Hintz, Kreiger and Weissnat",0 Harbort Street,+66-511-469-2118,Kantharalak
83,Heathcote-Crist,120 Coleman Street,+260-308-968-3264,Mongu
84,Hauck-Hackett,338 Ryan Trail,+1-520-578-3323,Tucson
85,Kihn-Hilpert,04953 Banding Drive,+420-924-413-8095,Tlumačov
86,Krajcik and Sons,00 Hayes Court,+371-156-721-9869,Daugavgrīva
87,Gutmann LLC,2 Bunting Park,+86-218-515-6847,Honglai
88,"Ratke, Hudson and Ruecker",31 West Circle,+62-864-757-9004,Kotabumi
89,Stamm Group,2688 Forest Way,+62-125-880-5862,Temperak
90,Murphy Group,8 Hooker Drive,+7-581-819-6520,Rodionovo-Nesvetayskaya
91,"Dooley, Durgan and Auer",3 Memorial Street,+7-108-510-4239,Babushkin
92,"Klein, Ernser and Fritsch",8818 Comanche Alley,+420-297-144-4825,Březová
93,"Reynolds, Nicolas and Doyle",3072 Starling Parkway,+52-324-649-6750,San Pedro
94,Veum-Mann,21252 Hintze Junction,+373-422-831-5398,Soroca
95,Koss and Sons,1128 1st Trail,+86-843-614-0708,Sanguanzhai
96,Wisoky-Ondricka,93166 Buena Vista Junction,+266-571-580-5558,Maputsoe
97,Reichel-Fay,58295 Chinook Avenue,+86-268-598-9034,Guandu
98,Kshlerin-Feeney,43594 Eggendart Park,+62-722-662-7609,Kutacane
99,Mante-Schneider,810 Forest Avenue,+62-127-961-0836,Samadua
100,"Blick, Russel and Kuvalis",807 Paget Pass,+60-859-236-2129,Kuantan
101,Littel-Champlin,64 Summit Park,+502-120-424-3767,Nentón
102,"Howe, Cormier and Rempel",8 Shasta Way,+62-517-781-8677,Tertek
103,"Barrows, Moore and Ferry",65109 Eastwood Pass,+45-213-309-7347,København
104,Mayer Group,8 Meadow Valley Crossing,+86-600-593-1792,Huangmei
105,Mayert-Zulauf,1 Hazelcrest Park,+62-527-485-5909,Kekeran
106,Kemmer LLC,856 Bayside Hill,+1-323-533-1488,Runaway Bay
107,Conroy-Hodkiewicz,9 Main Place,+62-908-810-7282,Bente
108,"Kunze, Pagac and Monahan",31 Mariners Cove Lane,+55-531-344-8541,Taquaritinga
109,Lueilwitz Group,2 Declaration Trail,+680-155-282-0450,Koror Town
110,Torp-Pouros,761 Transport Court,+63-734-800-7417,Digkilaan
111,Kling-Ullrich,900 Crownhardt Pass,+55-209-752-8654,Cândido Mota
112,"Abbott, Osinski and Dare",68 Granby Court,+62-543-622-9335,Kuala Bintang
113,Gulgowski Inc,65 Jenifer Place,+351-910-397-7571,Sardoal
114,"Schmeler, Monahan and Ratke",40789 Vera Circle,+62-495-387-3856,Waitenepang
115,Larson LLC,1 Bellgrove Center,+63-525-982-5994,Santo Tomas
116,McClure Group,8061 Hanson Pass,+86-789-474-3945,Xinshi
117,"Hamill, Marvin and Bernier",610 Steensland Junction,+7-100-421-2134,Zheleznodorozhnyy
118,Lehner-Adams,3 Sage Trail,+82-607-132-0122,Munsan
119,Ruecker Inc,366 Duke Terrace,+502-999-300-6498,San Antonio Aguas Calientes
120,"Schmitt, Hagenes and Pfannerstill",46 Wayridge Drive,+86-716-903-2352,Zhongshanlu
121,Abshire and Sons,64 Prentice Trail,+48-799-228-5480,Miętne
122,"Conn, Cruickshank and Schroeder",52556 Lighthouse Bay Park,+254-160-121-5668,Litein
123,"Oberbrunner, McKenzie and Pacocha",99331 Warrior Street,+7-425-101-8100,Saransk
124,Johnson Inc,924 Jenifer Place,+62-494-687-5315,Kadupayung
125,Rau-Pagac,07619 Boyd Alley,+593-218-464-4919,Pelileo
126,Hahn and Sons,478 Portage Terrace,+351-182-776-6520,Santa Maria do Souto
127,O'Keefe-Morissette,711 Lakewood Way,+62-219-735-6659,Banaran
128,"Cormier, Treutel and Schamberger",1 Sherman Place,+86-513-895-9626,Dali
129,Feil Group,99 Nevada Street,+62-377-567-3137,Lasiana
130,Tromp LLC,327 Sloan Trail,+86-836-383-9408,Jiangyin
131,Klein Group,03888 Larry Avenue,+86-291-466-5373,Zhendeqiao
132,Dare-Luettgen,2356 Daystar Junction,+389-634-582-5284,Šuto Orizare
133,Moore LLC,7 Schurz Point,+86-418-258-8148,Hantang
134,"Mraz, Weissnat and Boehm",611 Nancy Court,+380-725-527-2542,Uralo-Kavkaz
135,Hansen Group,98179 Graceland Point,+46-708-614-2640,Bengtsfors
136,Huel Inc,96392 Del Mar Center,+970-631-731-1395,Idhnā
137,Oberbrunner-Daugherty,188 Quincy Point,+62-676-497-3289,Pendawanbaru
138,"Kautzer, Ziemann and Marks",2034 Ronald Regan Pass,+351-600-917-1781,Alfena
139,O'Kon Inc,9 Namekagon Park,+86-497-882-4223,Jianfeng
140,"Hauck, Moen and Johnson",9 Iowa Way,+351-531-301-4666,Choca do Mar
141,Heller LLC,6 Ramsey Lane,+33-988-582-4261,Niort
142,Prohaska-Roob,6 Eagan Parkway,+62-430-922-1340,Ganjur
143,Koch LLC,80 Armistice Hill,+1-940-654-5243,Peace River
144,"Hauck, Wyman and McDermott",678 Dunning Road,+33-431-417-6307,Saint-Louis
145,"Grady, McLaughlin and Lowe",5 Holy Cross Lane,+1-303-934-9105,Littleton
146,Ziemann Group,14 Golden Leaf Hill,+36-211-343-3004,Budapest
147,"Vandervort, Crooks and Reichel",9 Debra Pass,+66-386-507-7425,Khon Buri
148,Kuvalis-Farrell,42966 Talmadge Circle,+63-698-802-5106,Santol
149,Kuvalis LLC,45676 Fuller Junction,+7-387-457-8470,Ilyich
150,"Gerlach, Christiansen and McGlynn",5 Hazelcrest Alley,+48-258-595-7915,Jaworze
151,Feil-Sporer,0 Dixon Park,+53-850-810-9602,Manzanillo
152,Jacobson-Sipes,021 Havey Place,+7-841-104-4023,Romanovo
153,Lubowitz Inc,762 Gerald Way,+249-803-915-1378,Port Sudan
154,"Rau, Kemmer and Hickle",72090 Fallview Lane,+86-338-239-9008,Handegate
155,"Franecki, Reichel and Nienow",0 Mccormick Road,+256-961-993-3503,Bugembe
156,Shanahan Group,0 Milwaukee Avenue,+506-692-821-5397,Turrialba
157,"Zboncak, O'Connell and Runte",4 Prairie Rose Trail,+33-895-696-8788,Bourg-en-Bresse
158,"Schumm, Lockman and Smitham",4883 Helena Street,+55-394-955-1065,Itamarandiba
159,Walsh-Runolfsdottir,84721 Warbler Circle,+7-550-751-5747,Monino
160,"Streich, Emmerich and Halvorson",39195 Old Gate Lane,+86-886-582-8887,Zuoxi
161,"Mohr, Adams and Jenkins",71980 Starling Avenue,+970-686-422-6496,Imrīsh
162,Rosenbaum-Grimes,5 Lindbergh Parkway,+686-390-166-9553,Temaiku Village
163,"Kirlin, Schiller and Grady",4 La Follette Drive,+86-125-218-5384,Jurh
164,Schinner-Leannon,1857 Doe Crossing Center,+62-562-703-9847,Saparua
165,Olson Group,4 Menomonie Pass,+30-217-977-1574,Kokkinóchoma
166,"Hegmann, Rogahn and Streich",423 Ronald Regan Plaza,+1-164-810-6653,Dauphin
167,"Lebsack, Labadie and Homenick",691 Claremont Way,+86-179-655-8512,Shangjia
168,Hyatt-Price,1529 Artisan Lane,+256-833-635-1328,Napak
169,"Streich, Fahey and Rath",31280 Esker Point,+351-356-988-6073,Grijó
170,Wintheiser LLC,79333 Butternut Place,+225-246-225-4927,Touba
171,Stamm Inc,2 Kipling Point,+381-557-129-8790,Radenka
172,Okuneva and Sons,5555 Cherokee Trail,+81-559-284-0121,Kanoya
173,Ledner LLC,361 Commercial Place,+46-481-799-4137,Överkalix
174,King-Stokes,842 Kings Hill,+86-710-243-2220,Nyagla
175,"Welch, Reynolds and Little",97194 Schiller Park,+86-961-187-4921,Yebaishou
176,Hackett-Bradtke,77948 Swallow Place,+420-377-766-9905,Lešná
177,Luettgen-Ledner,26040 Mariners Cove Parkway,+1-213-214-9755,Los Angeles
178,Brekke-Stamm,5534 Kinsman Terrace,+46-105-468-2871,Linköping
179,Keebler-Goyette,5910 6th Hill,+251-850-127-8252,Werota
180,Champlin LLC,825 Eastwood Trail,+86-245-357-2699,Xichang
181,Kassulke-Hartmann,5407 Muir Alley,+380-348-185-9115,Pryluky
182,Feeney-Doyle,827 Duke Junction,+55-861-807-0779,Bagé
183,"Wolf, Tromp and Brown",351 Milwaukee Parkway,+212-907-674-1288,Had Kourt
184,Muller-Schumm,66 Corben Circle,+56-722-688-1441,Yumbel
185,"Kshlerin, Ortiz and Runolfsdottir",7447 Spohn Street,+7-975-443-9785,Nizhnyaya Maktama
186,Purdy Inc,34 Montana Trail,+62-458-382-7980,Karanglo
187,Braun-Balistreri,18354 Merchant Pass,+420-369-928-3021,Herálec
188,"Konopelski, Rath and Wiza",40474 Pawling Circle,+595-497-954-3845,Itapé
189,"Mohr, Johnson and Wisozk",0814 West Point,+850-866-130-1659,Haeju
190,Von LLC,52263 Carberry Point,+44-120-558-2243,West End
191,"Corwin, Mueller and McDermott",3222 Stoughton Parkway,+62-125-170-3138,Gunungsari
192,Aufderhar and Sons,1 Knutson Plaza,+34-100-732-7995,Leon
193,Connelly-Shields,82026 Calypso Point,+1-209-552-8836,Stockton
194,"Schmidt, Parker and Paucek",5 North Terrace,+86-629-515-2210,Nanlu
195,Adams-Casper,8 Butternut Place,+1-775-906-5306,Sparks
196,Wisozk-Klein,6 Bonner Plaza,+63-651-556-6601,Cardona
197,"Walsh, Abshire and Parker",7643 Corben Plaza,+98-155-268-9675,Zanjān
198,Heidenreich-Jacobson,847 Springview Road,+62-138-591-6843,Babakan
199,Koch and Sons,998 Bunker Hill Lane,+54-340-784-5606,General Pinedo
200,"Larson, Franecki and Baumbach",64 Oak Pass,+970-349-113-0593,Immātīn
201,"Rogahn, Olson and Lang",8 Montana Lane,+1-734-227-2221,Lumby
202,"Denesik, Kiehn and Nader",609 Riverside Plaza,+380-644-551-8005,Otyniya
203,"Tillman, Deckow and Auer",603 Upham Parkway,+967-747-852-7996,Al Qaţn
204,Frami-Torp,7 Brown Terrace,+86-799-599-8670,Anrong
205,Gleason and Sons,8 School Street,+359-526-767-0475,Bratsigovo
206,Zemlak-Beahan,93901 Mitchell Alley,+212-228-513-1570,Tiztoutine
207,"Boyer, Kilback and Osinski",91 Shopko Court,+63-952-266-5299,Bangonay
208,Maggio and Sons,31027 Glacier Hill Court,+86-416-224-3664,Zhangjiaji
209,"Morissette, Kirlin and Ruecker",084 Atwood Street,+46-238-566-9398,Piteå
210,Gleason and Sons,76 Twin Pines Point,+33-516-982-4541,Saint-Dizier
211,Hauck-Douglas,627 High Crossing Point,+86-208-314-3200,E’erdun Wula
212,Treutel-Kozey,5 Tennyson Circle,+56-380-432-8869,Lota
213,Ledner LLC,002 Algoma Circle,+62-547-114-3011,Sanankerto
214,D'Amore LLC,8 Namekagon Junction,+86-177-590-3519,Huadian
215,Schuster-Ritchie,6 Amoth Circle,+55-328-493-9167,Gravataí
216,Baumbach Group,7 Lerdahl Center,+57-173-996-5833,Madrid
217,"Kuphal, Rogahn and Runolfsson",6 Lakeland Way,+64-915-707-1401,Ngunguru
218,Schmitt-McClure,542 Butternut Park,+62-336-248-8815,Bakan
219,Wiegand Group,57 Bonner Lane,+420-735-848-4373,Židlochovice
220,"Denesik, Bauch and Grimes",6757 Ridge Oak Lane,+86-164-442-6620,Konggar
221,"Mueller, Lesch and Casper",1756 Northland Parkway,+506-127-346-3437,Batán
222,"Hickle, Huel and Yost",7 Toban Hill,+502-948-793-5676,San Juan Bautista
223,Medhurst-Braun,03026 Meadow Vale Terrace,+506-873-622-6818,San Pablo
224,O'Reilly LLC,099 Montana Junction,+86-231-838-4347,Daxing
225,Bruen LLC,1 Bartillon Plaza,+55-956-277-0533,Euclides da Cunha
226,Brown Inc,3235 Goodland Road,+591-837-624-9079,Rurrenabaque
227,Morar-Paucek,609 Fairfield Terrace,+254-230-108-0786,Nyahururu
228,Krajcik Inc,76 Packers Way,+7-564-479-1712,Burla
229,Conroy LLC,09605 North Road,+84-960-208-5054,Vạn Giã
230,Kilback-Ernser,7 Susan Place,+856-678-521-0258,Xam Nua
231,"Rath, Hickle and Harber",80 Gerald Parkway,+93-332-466-9873,Muḩammad Āghah Wuluswālī
232,Jaskolski-Baumbach,014 Pond Parkway,+55-913-375-4828,Piraju
233,Hilll Group,8 Jenifer Trail,+996-874-655-4558,Pokrovka
234,"Wehner, Lehner and Hills",246 Manufacturers Drive,+63-796-731-3805,Pinayagan Norte
235,Schaden Inc,83 Oakridge Pass,+86-680-817-0303,Dongchengyuan
236,Kuhlman and Sons,06240 Spohn Parkway,+62-726-432-9185,Pelem
237,Sanford-Graham,40 Bellgrove Court,+380-446-650-2764,Lypnyazhka
238,"Hauck, Collins and Hayes",51 5th Trail,+504-975-487-5558,Agalteca
239,Schumm-Kertzmann,866 Hoepker Way,+86-274-588-2859,Tumen
240,"Jakubowski, Rosenbaum and Carroll",0922 Mariners Cove Road,+51-225-813-0073,Sitajara
241,Schoen-Grady,774 Anthes Junction,+420-351-519-7253,Zašová
242,Morissette-Schiller,830 Starling Road,+48-866-464-7627,Morawica
243,"Kuphal, Schmeler and Abbott",876 Manley Parkway,+54-992-686-9558,Ushuaia
244,Schmitt-Feil,363 Sunfield Point,+86-329-996-1972,Garmo
245,Goldner Inc,09341 Talmadge Lane,+502-629-413-8045,Santa Apolonia
246,Nienow-Steuber,6 Blue Bill Park Junction,+1-716-556-4736,Buffalo
247,Ward-Skiles,25817 Stephen Circle,+46-502-306-7488,Linköping
248,Becker Inc,09 Forest Run Way,+63-439-855-5530,Napuro
249,Ratke-Hodkiewicz,47203 Springview Terrace,+976-168-549-0048,Arvayheer
250,Heidenreich LLC,1 Macpherson Street,+86-985-819-5281,Yuelai
251,Cruickshank LLC,2 Lyons Place,+420-785-543-1494,Bechlín
252,Leannon-Littel,3 John Wall Center,+55-336-381-3736,Joaçaba
253,Nolan-Senger,2 Park Meadow Terrace,+81-754-334-0263,Shisui
254,Jacobi-Cormier,4004 Sunfield Pass,+380-547-697-0307,Blahodatne
255,"Gislason, Keeling and Beahan",7648 Arkansas Court,+66-848-652-5848,Saba Yoi
256,"Feeney, Schulist and Kerluke",59220 Artisan Point,+389-457-128-2297,Gostivar
257,"Heidenreich, Hettinger and Heller",57 Bellgrove Circle,+52-681-744-8121,Arroyo Seco
258,"Kilback, Willms and Farrell",555 Bonner Lane,+590-454-298-7798,Philipsburg
259,Rogahn-Moore,663 Algoma Lane,+48-509-750-7303,Sieniawa
260,Paucek and Sons,488 Victoria Terrace,+86-352-128-9708,Liulin
261,"Schaefer, Pfeffer and Schuster",4 Hollow Ridge Hill,+509-129-404-3405,Cornillon
262,Kiehn Group,13 Spenser Crossing,+225-832-684-8072,Bouaké
263,Champlin and Sons,0 Heath Circle,+27-913-442-3820,Eshowe
264,Kemmer-Howell,19 Victoria Pass,+351-760-703-3034,Gémeos
265,"Crona, Glover and Blanda",1 Lawn Drive,+86-151-595-2176,Pingya
266,Fisher Group,20 Eggendart Junction,+355-289-154-6970,Krahës
267,"Schultz, Anderson and Lehner",21909 Mallard Point,+420-846-735-9691,Hrabyně
268,"Predovic, Aufderhar and Larkin",44951 Texas Parkway,+55-647-173-3054,Timbó
269,Dare-Ferry,6 Maryland Street,+53-340-132-6007,Moa
270,Turner-Johns,231 Kropf Parkway,+63-782-110-9802,Boston
271,"Nikolaus, Gerhold and Bednar",5544 Declaration Trail,+84-675-961-0132,Chợ Mới
272,"Jacobi, Spencer and Marks",555 Melody Hill,+81-475-705-6660,Zama
273,Haag Group,6 Old Gate Point,+86-293-700-0316,Lukou
274,Lindgren-Funk,826 Homewood Court,+46-617-172-3870,Göteborg
275,"Fisher, Wisozk and Bruen",85 Straubel Terrace,+55-764-822-7615,Lins
276,Morissette and Sons,26429 Dennis Junction,+86-267-288-4303,Shayuan
277,Leuschke-Maggio,1 Lakewood Parkway,+81-650-854-4834,Fukuoka-shi
278,"O'Connell, Collins and Greenfelder",26567 Rigney Way,+86-477-215-4009,Shangcun
279,Rolfson-Quigley,823 Northland Crossing,+33-840-804-5624,Paris 04
280,"Schumm, Paucek and Tremblay",04 Coolidge Plaza,+46-320-556-3047,Stockholm
281,Bayer Inc,3709 Graedel Terrace,+86-560-248-7502,Dalongtan
282,"Cronin, Beier and Rath",4 Merrick Crossing,+27-548-458-9167,Welkom
283,"McGlynn, Grimes and Bernier",332 High Crossing Hill,+48-753-726-8353,Mętków
284,Kulas and Sons,91 Judy Alley,+63-701-775-5560,San Isidro
285,Ondricka-Zieme,82549 La Follette Crossing,+62-392-452-8578,Linggamanik
286,Tremblay Inc,29968 Lakeland Court,+48-304-474-8173,Wrząsowice
287,Hilll-Steuber,89803 Carberry Park,+242-655-817-7935,Kalemie
288,Kiehn Inc,769 Sutteridge Center,+55-828-869-6804,Guaxupé
289,Hayes Inc,18 Bultman Road,+92-223-588-2710,Garhi Khairo
290,Kulas-Leuschke,8054 Arrowood Road,+371-947-257-2372,Nereta
291,Wilkinson Group,26060 Commercial Place,+33-811-258-2857,Marseille
292,"Tillman, Rice and Paucek",179 Ridgeway Plaza,+57-433-510-6196,Chaguaní
293,"Macejkovic, Rogahn and Kuhic",6 Schiller Terrace,+30-486-791-3439,Pélla
294,Dare LLC,02 Prentice Road,+48-930-587-2834,Owczarnia
295,"Schowalter, Watsica and Cremin",21 Hoepker Way,+62-977-480-9853,Batangtoru
296,Gorczany Group,2 Hallows Lane,+86-243-528-6206,Qianqiao
297,Ortiz and Sons,8452 Oak Valley Park,+84-233-147-1116,Đình Lập
298,"Schinner, Simonis and Schoen",42317 Corben Terrace,+54-668-250-0297,San José de Jáchal
299,Considine Inc,761 Ridgeview Junction,+420-334-761-5280,Terezín
300,"Schroeder, Morissette and Kozey",6118 Mallard Alley,+358-274-230-0507,Juupajoki
301,Harber-Corwin,29 Florence Lane,+504-957-182-4526,La Guacamaya
302,"Miller, Mitchell and Rolfson",7419 Hallows Drive,+81-652-711-6766,Isehara
303,Prosacco-Lakin,21 Lien Court,+86-170-937-6593,Bohou
304,"Emard, Willms and Jast",0 Michigan Place,+62-620-728-6882,Fatumnasi
305,"Huels, Dibbert and Turner",58 Derek Drive,+7-728-393-8722,Yermolino
306,Lynch-Daniel,0994 Briar Crest Crossing,+48-751-861-9015,Broniszewice
307,Stiedemann Inc,7453 Cardinal Way,+62-539-764-8906,Paringin
308,Ullrich-Collier,37051 Tennessee Pass,+62-175-157-5998,Kowingir
309,Aufderhar-Bruen,59124 Birchwood Way,+51-882-831-8057,Ambar
310,Frami Group,2 Bayside Trail,+262-130-728-2867,Saint-Denis
311,Ferry Group,833 Coolidge Center,+591-343-187-8744,Batallas
312,Paucek-Ledner,57783 Briar Crest Way,+1-751-471-0664,Chapelton
313,Gislason Group,4266 Summerview Way,+33-898-980-5684,Châteaudun
314,Marks-Beier,73 Fulton Court,+351-194-461-5949,Penhascoso
315,"Marvin, Kessler and Torp",069 Hazelcrest Junction,+62-683-113-4604,Benger
316,Jast Inc,3597 Ryan Circle,+81-459-690-0977,Gyōda
317,"Kilback, Tromp and Reinger",176 Leroy Terrace,+84-692-325-7801,Mỹ Thọ
318,DuBuque-Hyatt,47895 Judy Crossing,+62-503-389-2780,Bamban
319,"Legros, Tillman and Hand",9 Hauk Trail,+30-939-366-3109,Évlalo
320,Hoppe Group,074 Welch Street,+269-884-706-0850,Patsi
321,Stark-Casper,25 Kensington Alley,+86-583-767-2121,Guancangping
322,Monahan and Sons,41186 Melvin Avenue,+92-743-120-9841,Kashmor
323,Bode Inc,798 Corben Hill,+55-490-279-5090,Igaraçu do Tietê
324,Abbott Group,8 Warner Point,+385-976-263-4803,Zagreb - Centar
325,Fisher-Emard,10 Kinsman Trail,+972-160-467-2062,Mitzpe Ramon
326,"Boyle, Reilly and Tremblay",2185 Summerview Street,+86-396-316-1745,Yilkiqi
327,"Baumbach, Leuschke and Bauch",042 Mendota Parkway,+86-876-632-3197,Wenxian Chengguanzhen
328,Turner and Sons,49183 Buell Crossing,+86-835-782-3285,Bahe
329,Swift-Stiedemann,50310 Manitowish Parkway,+420-665-435-8505,Dolní Dunajovice
330,Schaefer-Langworth,424 Summerview Plaza,+66-589-549-9233,Sanom
331,"Monahan, McDermott and Kuhic",35955 Loeprich Court,+62-199-929-5842,Bojonggenteng
332,Cremin-Halvorson,6944 Drewry Alley,+962-349-164-4876,Aqaba
333,Bechtelar-Cummings,82 Claremont Center,+256-843-918-2090,Fort Portal
334,Rohan-Franecki,409 Arrowood Way,+86-379-639-1219,Muli
335,"Padberg, Bruen and Frami",2 Eliot Junction,+971-168-830-4079,Dibba Al-Hisn
336,Dooley Inc,9698 Maryland Center,+48-841-160-5481,Bledzew
337,Kassulke LLC,444 Rusk Court,+7-723-162-4379,Mitrofanovka
338,Johnson Group,908 Calypso Road,+84-592-176-4269,Thị Trấn Thọ Xuân
339,Mueller-Schiller,86586 Kingsford Center,+86-971-212-2530,Guangshan Chengguanzhen
340,Heller-Upton,0334 Namekagon Avenue,+62-397-466-1739,Cipatat
341,Conroy Group,11611 Logan Avenue,+86-585-496-8534,Wangsi
342,Conn-Jast,1 High Crossing Lane,+86-198-291-3064,Taoyuan
343,"Heathcote, Koepp and Feest",1 Fairfield Way,+359-167-399-4588,Zlatograd
344,"Hilll, Herzog and Dickinson",51161 Knutson Crossing,+62-551-568-5825,Bantu
345,"DuBuque, Blanda and Hermann",78213 Meadow Valley Plaza,+62-200-334-1307,Wailolong
346,"Zboncak, Kilback and Bauch",342 Hansons Crossing,+86-312-962-4517,Weifen
347,"Lueilwitz, Donnelly and Rempel",6249 Lunder Circle,+86-212-562-1669,Baqiao
348,Schuppe-Bernhard,19790 Killdeer Court,+389-178-293-1747,Неготино
349,"Kris, Bruen and Abbott",0677 Dennis Trail,+66-361-124-6724,Prachuap Khiri Khan
350,"Wolf, Jones and Baumbach",468 Troy Way,+351-101-385-6268,Constance
351,Shanahan-Donnelly,135 Northridge Avenue,+237-927-930-0361,Bogo
352,Weimann-Pfannerstill,8538 Heath Trail,+86-675-637-9937,Pingshan
353,Abernathy and Sons,8 Kennedy Trail,+66-344-429-7293,Phra Khanong
354,Ward-Beatty,946 Loeprich Street,+86-452-830-1627,Yiyang
355,"Gutmann, Monahan and Bruen",1196 Dixon Terrace,+55-726-782-9138,Barroso
356,"Volkman, Zemlak and Carter",529 Fordem Way,+47-377-522-1605,Oslo
357,Waters-Cassin,2 Washington Crossing,+62-570-363-7894,Putrajawa
358,Cassin-Legros,2899 Daystar Road,+86-890-450-3188,Hongqi
359,Ortiz-Olson,35978 Randy Parkway,+7-331-464-1687,Fedorovka
360,Hickle Group,3988 Jana Avenue,+63-165-477-2611,Alannay
361,"Hilll, McGlynn and Gorczany",419 Jay Hill,+86-184-922-4202,Fangtian
362,Stoltenberg and Sons,9101 Toban Lane,+383-647-683-1181,Klokot
363,"Hilll, Wunsch and Lowe",053 Lindbergh Center,+31-586-199-6722,Enschede
364,Senger-Mante,10 Roxbury Alley,+62-175-853-5702,Oebai
365,Berge-Kemmer,31 Artisan Junction,+86-448-759-8273,Shuangyuan
366,Grady-O'Kon,4 Nova Alley,+504-292-179-1609,Berlín
367,"Ratke, Quitzon and Bechtelar",6 Banding Alley,+380-445-712-5977,Ukrainka
368,Jaskolski-Kiehn,2 Del Sol Place,+33-626-825-8100,Bobigny
369,"Ritchie, Bednar and Johns",86329 Ohio Circle,+371-444-679-9772,Vecpiebalga
370,Lueilwitz-Carter,7 Schurz Park,+351-618-807-9722,Pedrogão
371,Koelpin-Osinski,94945 Alpine Junction,+86-454-870-6299,Jiangfang
372,Brakus Group,1 Warner Plaza,+353-974-671-5401,Rathangan
373,Gorczany Inc,61 Sullivan Avenue,+60-685-258-0579,Seremban
374,Fritsch LLC,33 Katie Hill,+972-216-142-9327,Tiberias
375,Stamm-Goyette,27016 Ramsey Street,+33-425-386-2203,Grenoble
376,"Koelpin, McDermott and Mitchell",09 Northport Alley,+86-268-836-5971,Yantan
377,"O'Conner, Wiegand and Wilkinson",6790 Laurel Park,+223-475-295-8508,Banamba
378,Kozey Inc,66251 Parkside Pass,+54-540-297-1151,General Guido
379,Bauch-Bauch,5929 Service Crossing,+63-814-335-8072,Daliciasao
380,Leuschke Group,8 Mallory Terrace,+230-108-904-9106,Bambous Virieux
381,Jast-Walker,23 Pierstorff Street,+62-344-450-9492,Tegalgede
382,"Parker, Metz and Rempel",8 Buhler Hill,+7-739-986-5239,Shatura
383,"Ward, Metz and Kunde",1848 Oriole Way,+86-350-580-0528,Zhaxirabdain
384,Prosacco-Morar,1511 Claremont Point,+7-642-562-0625,Mulino
385,Conn LLC,60 Clove Trail,+596-622-113-5743,Le Lamentin
386,"Rohan, Senger and Lehner",96 Wayridge Center,+1-513-651-2024,Cincinnati
387,Gerhold-Kutch,99 Charing Cross Pass,+7-343-929-8498,Kotlas
388,Cronin Inc,53532 Cottonwood Street,+86-512-615-7034,Zaoshi
389,Ebert-Brown,79 Bluestem Circle,+374-620-518-9375,Tsaghkahovit
390,"Skiles, Dach and Casper",809 Maple Trail,+351-799-715-3240,Estela
391,"Heaney, Mann and Schuppe",57 Waywood Point,+86-886-566-6289,Dongtang
392,Herzog-Gottlieb,5088 Charing Cross Trail,+63-389-977-7077,Balayan
393,Zieme Group,46 Sunfield Hill,+998-845-948-0856,Khiwa
394,Dare-Torp,607 Manitowish Circle,+63-407-544-6406,Mambusao
395,Beier-Johns,8845 Milwaukee Circle,+54-480-548-2833,Plottier
396,Farrell Group,02988 Mcbride Alley,+62-740-917-1599,Ankola
397,"Lehner, O'Connell and Glover",62695 Eggendart Center,+358-652-433-6961,Jämsänkoski
398,"Langosh, Adams and Stracke",88551 Shasta Way,+54-579-759-7045,Gobernador Costa
399,McLaughlin Group,1706 Brickson Park Lane,+62-696-947-8835,Krajan Dua Sumbersari
400,Mayert Inc,54 American Ash Avenue,+48-171-131-7403,Maniowy
401,Pagac-Johnson,6045 Ridge Oak Alley,+86-560-213-3014,Qiaotou
402,"O'Hara, Bashirian and Larkin",218 Darwin Way,+386-444-778-3627,Tišina
403,"Sporer, Romaguera and Crooks",590 Veith Drive,+46-984-139-0500,Sandviken
404,"Mitchell, Wolf and Pagac",82573 Steensland Center,+33-568-763-0970,Toulon
405,Swift LLC,3 Rigney Road,+63-292-787-0528,Victoria
406,Bogan Group,3770 Nova Trail,+7-794-903-2207,Megion
407,Botsford Group,1 Fairfield Street,+63-926-314-5045,Aras-asan
408,Padberg Inc,9 Sheridan Street,+253-628-595-7684,'Ali Sabieh
409,"Lakin, Brakus and Skiles",8350 Clarendon Circle,+48-794-188-7965,Lublin
410,"Ruecker, Keeling and McDermott",0 Dexter Parkway,+51-906-909-3538,Velille
411,"Koss, Skiles and Daugherty",2171 Larry Place,+7-210-908-6627,Pyatigorskiy
412,"Maggio, Reinger and Walsh",7299 Northfield Alley,+7-208-267-0347,Sasykoli
413,Tillman-Anderson,3 Chinook Crossing,+86-162-398-4786,Dazu
414,Ferry-Senger,21 Golf Course Junction,+351-112-645-6550,Tapado
415,"Larkin, Hermann and Terry",0676 Hudson Avenue,+216-472-766-0616,El Fahs
416,Kuhlman-Ebert,28 Corben Point,+389-581-300-4354,Bitola
417,Marvin Group,9 Maryland Drive,+51-481-512-3984,Ancahuasi
418,Bartoletti Inc,224 Logan Crossing,+7-351-340-1429,Severoural’sk
419,Sawayn LLC,1021 Crest Line Alley,+7-182-169-6877,Novotitarovskaya
420,Luettgen-Hills,08441 New Castle Lane,+27-966-537-5995,Tzaneen
421,Senger Inc,3 Di Loreto Court,+48-591-866-0562,Lubichowo
422,Stroman-Feil,313 Mayer Drive,+351-971-617-5022,Calvário
423,Adams-West,023 Arizona Trail,+63-164-252-3512,Biliran
424,"Ryan, Blanda and Auer",678 Vidon Court,+62-888-493-9429,Kebon
425,Koelpin-Dicki,2913 Utah Place,+351-450-205-3321,Nagoselo do Douro
426,Adams LLC,107 Logan Place,+92-640-168-4977,Jām Sāhib
427,Champlin-Blick,83125 Sheridan Plaza,+81-393-931-2300,Uto
428,Ziemann Inc,79 Lukken Alley,+967-857-985-7967,Ḩabīl ar Raydah
429,Ziemann-Koss,6 Coleman Trail,+855-680-778-0771,Pursat
430,Kutch-Powlowski,63905 Magdeline Drive,+63-266-927-2857,Malabonot
431,Walker Inc,61 Elka Junction,+54-719-705-6382,Aguilares
432,Reilly-Kozey,64 Porter Drive,+992-932-215-0163,Mehron
433,"Runte, Jacobson and Mitchell",9674 Texas Crossing,+358-841-562-3729,Pernå
434,Bins-Pacocha,5 Vermont Pass,+55-979-348-9215,Prata
435,Rippin-Hyatt,0163 Moland Way,+257-538-435-4099,Cankuzo
436,Fadel Group,869 Jenifer Road,+62-853-783-1327,Demak
437,Witting-Morar,885 Carpenter Parkway,+420-788-276-2896,Jablonec nad Nisou
438,Nader-Marvin,1 Dryden Court,+351-606-782-3112,Olival
439,Raynor-Auer,2655 Nevada Street,+62-620-227-4776,Munjungan
440,"Nader, Stracke and Braun",04199 Quincy Center,+30-384-943-8098,Arnaía
441,Koss Inc,1132 Division Park,+86-966-776-9567,Zhaizigou
442,"Murphy, Stark and Runolfsson",68334 Maple Wood Circle,+81-631-135-0521,Ōkuchi
443,Kassulke-Rempel,65 Melvin Lane,+675-428-280-5145,Tari
444,Pacocha LLC,0641 Petterle Circle,+420-341-975-6965,Červenka
445,Erdman and Sons,8600 Jana Plaza,+86-812-305-4648,Xiangcunxiang
446,"Upton, Bogan and Hansen",1 Artisan Lane,+504-589-126-1539,San Jerónimo
447,Waters-Bogan,71 Golf Parkway,+880-945-472-5925,Tāngāil
448,Fritsch-Howell,454 Stuart Plaza,+263-583-463-9268,Centenary
449,McLaughlin-Ankunding,4 Forest Run Avenue,+86-414-612-1298,Yuanyang
450,"Simonis, Goyette and Ziemann",91844 Butterfield Park,+62-642-994-2569,Hegarsari
451,Baumbach-Raynor,7208 Springs Lane,+290-863-624-9821,Edinburgh of the Seven Seas
452,Howell-Beier,1 Hayes Way,+229-339-413-8256,Dassa-Zoumé
453,"Nienow, Padberg and Streich",2 Crest Line Way,+597-389-940-7506,Lelydorp
454,Jones Group,925 Jay Park,+234-340-846-3218,Okpoga
455,"Jenkins, Padberg and Haag",14950 Vermont Point,+33-807-796-3742,Orsay
456,"Klocko, Runolfsson and Ankunding",998 Sauthoff Way,+86-248-131-4088,Huanghuai
457,"Purdy, Kessler and Willms",50771 Esker Lane,+86-227-766-5592,Jinshan
458,Ratke and Sons,4 Kinsman Court,+62-565-371-6966,Karang Daye
459,Kassulke-Bartell,0 Emmet Terrace,+57-540-289-4486,Bello
460,"Hilll, Greenholt and Bogisich",09 Parkside Junction,+351-657-626-5061,Seixas
461,Auer Inc,85939 Annamark Plaza,+886-879-672-6811,Jincheng
462,Hills and Sons,06120 Sunbrook Alley,+33-532-738-9233,Dieppe
463,Skiles-Grant,08 Sommers Drive,+86-557-884-5936,Changlin
464,Beer LLC,6838 Pawling Center,+81-754-179-8388,Kakogawachō-honmachi
465,O'Keefe and Sons,822 Oriole Circle,+48-951-963-7507,Niebocko
466,"Fay, Bartell and Bosco",17431 Manitowish Place,+62-511-697-7525,Pare
467,Weissnat-Grant,080 Golf Course Crossing,+46-164-792-0300,Örebro
468,"Huel, Kulas and Lowe",434 Old Shore Center,+374-582-953-5105,Nor Yerznka
469,Willms LLC,89763 Manley Alley,+33-310-631-6912,Paris 09
470,Miller Group,79382 Kipling Court,+7-164-337-4050,Dal’neye Konstantinovo
471,Cartwright LLC,99 Cambridge Way,+62-947-593-0546,Sidomulyo
472,"Runolfsson, Lakin and Predovic",80937 Gateway Road,+63-126-897-8176,Mambago
473,"Zboncak, Volkman and Pfannerstill",533 Mockingbird Hill,+62-109-309-6636,Banaran
474,Abshire-Doyle,4403 Cambridge Street,+62-753-331-8954,Tangkil
475,Bogisich Group,433 Laurel Court,+62-728-283-0207,Kendalrejo
476,"Hane, Koch and Toy",87819 Iowa Alley,+55-878-616-1483,Parelhas
477,Gerhold LLC,34 Hintze Point,+86-120-951-3503,Xitou
478,Padberg-Langosh,0483 Pawling Terrace,+86-927-145-0839,Tuanjie
479,Mayert LLC,6067 Anhalt Road,+55-823-430-5845,Três Corações
480,Corkery and Sons,99 Blaine Hill,+351-708-178-6264,Monte da Boavista
481,"Rice, Wolf and Crona",73467 Almo Point,+62-703-981-1912,Sonorejo
482,"Kemmer, Balistreri and Sauer",4609 Sutteridge Parkway,+46-421-126-5661,Östersund
483,Huel and Sons,686 Carberry Drive,+86-444-759-5132,Wanshan
484,"Green, Wiegand and Barton",48650 Paget Plaza,+62-229-199-5071,Cempa
485,Rosenbaum Group,58681 Victoria Avenue,+86-597-153-5708,Nanchangshan
486,Dare-Johns,7501 Commercial Pass,+48-993-251-0797,Krzemienica
487,Rohan-Shanahan,65129 Maywood Street,+66-192-331-4979,That Phanom
488,"Lakin, Nader and Beer",0 Atwood Center,+86-539-428-8160,Duofudu
489,Abshire and Sons,070 Sycamore Terrace,+33-880-788-0115,Maisons-Laffitte
490,O'Keefe-Kerluke,05909 Bay Parkway,+351-980-846-8650,Vista Alegre
491,Bosco and Sons,1262 Gerald Road,+98-758-124-5234,Akbarābād
492,Haley-Medhurst,6 Debra Trail,+234-600-621-4778,Yanda Bayo
493,"Schmeler, Hintz and Botsford",862 Mcguire Drive,+420-819-606-8025,Rýmařov
494,Kuhlman LLC,0 Oriole Crossing,+62-256-304-6169,Prengtale
495,"Lesch, Sipes and Pagac",34 International Junction,+977-664-785-9314,Dārchulā
496,Batz-Dare,73968 Nobel Crossing,+46-514-649-2435,Degerfors
497,"Trantow, Spinka and Larson",088 6th Pass,+48-681-586-9410,Kęty
498,Torphy-Leffler,2852 Lawn Park,+86-327-507-2887,Nehe
499,"Hauck, Stark and Mertz",26 Corry Terrace,+56-500-909-2850,Río Bueno
500,"Koepp, Hamill and Jacobs",789 Kedzie Trail,+86-274-873-0910,Wangcao
501,Weissnat LLC,6 Oxford Avenue,+62-479-357-8585,Citeguh
502,Oberbrunner-Koss,88955 Oak Way,+82-114-936-3284,Cheongpyeong
503,Monahan-Quitzon,53186 Lindbergh Hill,+387-320-609-7634,Novi Šeher
504,"Schulist, Bergstrom and Dickinson",59552 Summerview Way,+62-848-876-8547,Sukacai
505,Altenwerth and Sons,112 Westend Pass,+86-808-331-5483,Maoming
506,"Gleason, Grant and Mraz",1457 Cody Circle,+351-505-585-4925,Lobão
507,Weimann-Heaney,35973 Pankratz Junction,+86-384-700-6269,Shekou
508,Windler-Rutherford,2091 Marquette Terrace,+7-444-945-5719,Khadyzhensk
509,Lindgren-Marvin,69 Beilfuss Place,+55-496-683-0924,Jacaraú
510,Heidenreich-Hilpert,40659 Fair Oaks Parkway,+86-121-254-7593,Huangcai
511,Goodwin-Pfannerstill,47 Village Drive,+60-175-856-8529,Pekan
512,Boehm-Kihn,38 Ruskin Circle,+92-679-669-2120,Hāfizābād
513,Hand-Hodkiewicz,423 Stoughton Parkway,+1-462-408-4335,Salaberry-de-Valleyfield
514,Schroeder LLC,63070 Derek Trail,+968-990-542-5234,‘Ibrī
515,"Dare, Wisoky and Kuhic",621 Granby Court,+55-877-509-1031,Matelândia
516,"Hilpert, Metz and Abernathy",62 Manufacturers Place,+353-217-218-6003,Ballyhaunis
517,Murray Inc,9 Weeping Birch Lane,+54-171-455-6613,Ingeniero Guillermo N. Juárez
518,Shields-Haag,0 Warrior Way,+49-246-466-5108,Berlin
519,Fisher-Zboncak,19 Surrey Pass,+86-911-914-7063,Qiankou
520,Dicki LLC,180 New Castle Center,+54-593-986-2773,Villa Lugano
521,"Greenfelder, Wyman and Emard",3752 Pine View Trail,+351-983-818-4345,Chorente
522,McClure-Connelly,64 International Terrace,+57-966-479-0426,Calimita
523,Waelchi-Berge,89 Steensland Point,+387-754-527-4960,Donji Vakuf
524,Altenwerth-Cruickshank,19782 Cottonwood Drive,+351-260-331-2759,Boco
525,Langworth-Hirthe,238 Menomonie Terrace,+55-189-431-3978,Muriaé
526,Reilly-Terry,32 Westridge Point,+7-368-997-7051,Pyatovskiy
527,Dare and Sons,45 Jackson Avenue,+33-792-771-2747,Évreux
528,"Kshlerin, Kirlin and Reichert",7647 Dawn Point,+62-232-989-1627,Pasonobenu
529,Cassin and Sons,94193 Reinke Way,+86-811-799-0057,Xiagong
530,"Abernathy, Bogisich and Quigley",02 Morning Alley,+255-899-755-1838,Ndungu
531,Waters LLC,4628 Village Alley,+66-435-824-2440,Yang Chum Noi
532,Schiller-Dare,1 Michigan Place,+7-418-282-4366,Kamenskiy
533,Harvey-Hane,906 3rd Trail,+504-494-368-4640,El Benque
534,Bailey and Sons,07706 Village Green Trail,+30-301-349-1885,Erátyra
535,McKenzie-Stiedemann,018 Golf Course Hill,+63-219-897-1014,Taclobo
536,Ernser Group,0037 Ohio Center,+7-800-846-9627,Novosil’
537,Purdy-Barton,8216 Hoepker Drive,+81-692-378-4364,Chitose
538,"Walsh, Reichel and Bechtelar",45074 Luster Center,+30-529-900-3432,Kalí Vrýsi
539,Luettgen-Douglas,75115 Chinook Road,+86-796-496-0333,Meizhou
540,Jenkins-Abbott,302 North Circle,+1-312-548-9300,Chicago
541,Conroy-Howell,01648 Thierer Way,+86-745-391-4291,Huizhai
542,Casper LLC,47 Knutson Avenue,+63-694-826-1974,Lope de Vega
543,Wehner and Sons,50002 Gulseth Circle,+86-777-263-8354,Xinzheng
544,Hane-Jast,1 Loftsgordon Hill,+86-994-233-5862,Sicheng
545,Gutmann Group,47 Service Plaza,+33-380-788-8239,Toulouse
546,Yost Inc,92124 Hazelcrest Pass,+62-252-556-4182,Takari
547,"Kuphal, Pouros and Krajcik",2534 East Circle,+81-415-579-3763,Iwakuni
548,Hand and Sons,58 Brentwood Parkway,+62-564-321-1765,Baki
549,Larkin Group,534 Buena Vista Crossing,+86-238-147-4336,Huangbizhuang
550,Wisozk Group,43 Autumn Leaf Avenue,+692-973-987-0425,Ailuk
551,"Wehner, Turcotte and Ritchie",4 Pepper Wood Terrace,+86-909-846-7023,Yidu
552,"Hilpert, Marks and Strosin",81 Hayes Terrace,+972-460-877-8937,Or Yehuda
553,Stiedemann-Hartmann,93 Bobwhite Hill,+86-239-125-9054,Anshan
554,Kuhic Group,720 Erie Parkway,+33-128-382-6088,Hendaye
555,Hintz-Connelly,1739 Oakridge Center,+86-231-655-6397,Anxi
556,Huel and Sons,09 Kinsman Way,+86-604-555-8251,Hongtang
557,Wyman Inc,37 Southridge Point,+84-405-197-5539,Kim Sơn
558,Bosco-Nienow,704 Norway Maple Alley,+62-196-561-4790,Nangkapayung
559,"Herman, Pagac and Walker",0 Pepper Wood Pass,+359-770-325-6510,Peshtera
560,"Maggio, Rutherford and Botsford",27752 Ridge Oak Court,+380-963-541-2302,Dokuchayevs’k
561,"Haag, Baumbach and Rolfson",26980 Bellgrove Way,+351-494-668-3463,Guia
562,Ebert LLC,5475 Mockingbird Crossing,+502-886-291-7347,El Chol
563,Hackett-Upton,9 Thierer Crossing,+968-895-830-1120,Bayt al ‘Awābī
564,"West, Daugherty and Murphy",679 Hermina Lane,+86-608-642-9656,Qingshi
565,Bode-Bosco,8 Helena Terrace,+86-530-376-3790,Longmenfan
566,Abshire and Sons,504 Hollow Ridge Circle,+30-717-926-7527,Asopía
567,"Jast, Bayer and Considine",862 Truax Alley,+63-920-941-4978,Armenia
568,"Kassulke, Kris and Lesch",3456 Fisk Point,+86-106-924-8907,Jianghu
569,"Braun, Waelchi and Adams",0 Weeping Birch Avenue,+62-930-775-6396,Bebekan
570,Runte and Sons,092 Crownhardt Lane,+63-871-229-3617,Rizal
571,Gottlieb Inc,1486 Judy Center,+62-663-689-6879,Palama
572,Kunze-Fadel,3417 Anniversary Court,+380-244-605-8238,Aleksandrovka
573,McDermott LLC,37338 Arizona Crossing,+998-183-719-5727,Kitob
574,Johnson LLC,42588 Vahlen Point,+56-466-470-6032,Parral
575,Quigley-Koepp,6 Utah Crossing,+63-915-626-0074,Panalo-on
576,Gerlach Group,525 Barnett Road,+63-735-984-9728,Santiago
577,Nienow-Waters,58 Kenwood Lane,+86-615-902-1616,Muhur
578,Ullrich Inc,02 Texas Pass,+86-211-139-6671,Leluo
579,Emmerich-Bechtelar,94331 Grasskamp Center,+7-440-919-0035,Podporozh’ye
580,Rogahn Inc,6 Northland Alley,+223-754-242-4439,Diré
581,Kreiger Group,011 Packers Drive,+47-289-819-6158,Porsgrunn
582,Walker Group,61799 Bowman Court,+55-182-546-8655,São Luís
583,Lehner and Sons,23832 Paget Plaza,+86-518-532-7461,Xiangxiang
584,Morar and Sons,1280 Monterey Drive,+46-316-886-3817,Falköping
585,Lesch-Jacobson,1772 Almo Drive,+86-752-921-5319,Kaiyuan
586,Satterfield-Wunsch,6688 Shoshone Place,+86-222-224-2395,Dongzhaogezhuang
587,Gleichner-Herzog,0233 Banding Road,+86-686-501-7963,Shangshaleng
588,Gutkowski-Bayer,11 Moulton Center,+86-542-613-6464,Donggang
589,Lesch-Goldner,66416 Stang Street,+351-872-311-7601,Sobral da Adiça
590,Pacocha and Sons,62456 Oak Avenue,+33-940-979-1931,Chenôve
591,Muller LLC,66 Jenna Way,+232-493-637-6155,Binkolo
592,Stracke and Sons,4 Bartillon Plaza,+381-867-878-6039,Belo Blato
593,Trantow Group,6 Swallow Lane,+31-697-594-7672,Dongen
594,"Beer, Runte and Streich",4005 Kim Road,+86-724-743-9459,Hou’an
595,Nader-Quigley,9 Marcy Place,+62-274-643-6265,Kebonan
596,Daniel and Sons,877 Lukken Lane,+502-961-637-7763,El Asintal
597,Pacocha-Hermiston,883 Jackson Terrace,+972-617-951-7308,Sājūr
598,"Bartoletti, Greenholt and Reichel",755 Hooker Way,+48-760-576-2473,Mełgiew
599,"Blanda, Shields and Ullrich",7267 Schmedeman Avenue,+63-671-556-0178,Quiling
600,Strosin LLC,2728 Lighthouse Bay Court,+46-147-855-4116,Ludvika
601,Brakus-Macejkovic,09 Morning Circle,+223-476-366-5021,Kinmparana
602,Langosh Inc,54 Hazelcrest Road,+1-487-743-4147,Lebel-sur-Quévillon
603,Ullrich LLC,77432 Goodland Circle,+1-491-356-2823,Fundación
604,Lind and Sons,09 Grasskamp Plaza,+62-259-583-2322,Oetutulul
605,Cruickshank and Sons,812 Burning Wood Way,+420-729-860-3423,Varnsdorf
606,Konopelski-Adams,18821 Hazelcrest Trail,+996-747-232-4754,Kaindy
607,"Rowe, Zieme and Grant",875 Reinke Street,+33-830-893-0695,Armentières
608,Bradtke-Ziemann,3 Buhler Lane,+234-224-306-1988,Ilare
609,"Beer, Conroy and Dare",408 7th Crossing,+507-604-532-4078,El Cortezo
610,"Parisian, Conn and Jacobs",810 South Place,+359-557-599-3088,Yakimovo
611,Lemke-Abshire,2 Menomonie Way,+62-373-792-5849,Ronggo
612,Leuschke-Koch,0122 Johnson Road,+62-307-794-5380,Liang
613,Durgan Group,967 Lighthouse Bay Street,+86-446-492-9117,Pingtian
614,Erdman-Hodkiewicz,8 Dorton Point,+63-435-718-4956,Cateel
615,Mohr-Schroeder,5580 Sunbrook Lane,+33-364-430-2442,Tours
616,Harris Group,92 Anderson Way,+1-571-970-3084,Alexandria
617,"Bins, Stracke and Osinski",139 Vera Circle,+7-425-174-6029,Iogach
618,Dare and Sons,78018 Bluejay Junction,+1-401-519-9530,Winnipeg
619,"Dickens, Kessler and Denesik",8 Killdeer Avenue,+63-690-432-1444,Buenavista
620,Hickle-VonRueden,275 2nd Park,+420-263-414-5026,Černilov
621,Frami and Sons,6 Susan Court,+86-672-326-0429,Fangqiang
622,Huels Inc,8032 Rutledge Park,+86-887-854-7627,Hecheng
623,"Armstrong, Howell and Borer",80 Oak Point,+596-718-216-1283,Fort-de-France
624,Greenholt-Mann,44572 Mandrake Hill,+505-654-203-4959,Santo Domingo
625,"Daugherty, Welch and Luettgen",9980 Clemons Pass,+970-980-210-4066,Ḩajjah
626,"Maggio, Hilpert and Nienow",4 Heath Park,+98-578-712-2374,Jongīyeh
627,Koch-Wilderman,39191 Northview Point,+63-241-912-2584,Impalutao
628,Bergnaum and Sons,7 Superior Pass,+1-385-936-8793,La Romana
629,Barrows-Schaden,83259 Burrows Hill,+86-619-969-0047,Zhongxing
630,Hilpert and Sons,353 Waxwing Center,+260-410-660-5521,Nchelenge
631,Hegmann-Wisoky,31 Karstens Road,+44-723-333-4107,Church End
632,Pacocha-Torphy,4 Dwight Pass,+46-461-945-4106,Göteborg
633,"Wyman, Hermiston and Osinski",81955 6th Point,+55-477-847-4111,Ibiá
634,Prohaska-Nienow,94494 Granby Avenue,+62-802-650-4773,Baleagung
635,"Stanton, Stark and Streich",163 Russell Point,+55-916-228-5048,Orleans
636,Abbott-Spencer,31218 Sachtjen Trail,+351-277-863-6901,Aldeias de Cima
637,Pagac Inc,1 Del Mar Street,+86-160-949-2787,Shanmu
638,Kub Group,799 Dahle Way,+86-774-580-8486,Maochen
639,"Cormier, Gorczany and Koss",23 Sherman Road,+7-484-672-2302,Zubtsov
640,"Schuster, Pagac and Hegmann",11610 High Crossing Terrace,+33-697-294-9550,Angers
641,Zulauf-Kris,68 Norway Maple Trail,+92-448-640-7579,Kunri
642,Schaefer LLC,78666 Sage Center,+62-557-336-0916,Lewograran
643,Purdy-Koelpin,736 Debra Way,+54-519-668-0441,Helvecia
644,Jacobs Group,1193 Rigney Terrace,+1-206-643-4723,Bellevue
645,Haley-Treutel,9699 Cody Circle,+46-603-449-8042,Bandhagen
646,Reinger-Streich,604 Amoth Way,+351-512-822-3281,Várzea
647,Bode-Hilpert,80147 Lerdahl Terrace,+7-575-193-1631,Qulsary
648,Quitzon LLC,5 Eastlawn Road,+420-127-628-3475,Měřín
649,"Lang, Hilpert and Gottlieb",1547 Vera Court,+55-632-623-2302,Rio de Janeiro
650,Ledner and Sons,68 East Trail,+62-275-992-8803,Nguken
651,"Koelpin, Zulauf and Jones",1481 Annamark Pass,+7-263-728-0287,Urkarakh
652,Balistreri-Weber,2 Mayer Court,+66-930-294-1925,Kantharalak
653,Murphy and Sons,80 Sachs Terrace,+62-557-579-8331,Gapuk
654,Kuvalis LLC,9800 Hoard Alley,+245-382-162-7372,Bafatá
655,"Legros, Zieme and Jacobi",0271 Karstens Crossing,+380-566-594-5776,Vendychany
656,Orn Inc,6739 Starling Center,+33-877-252-5447,Créteil
657,"Murray, Dach and Cartwright",347 Thierer Crossing,+46-894-385-7609,Linköping
658,Block Group,2129 Mccormick Terrace,+7-505-575-2761,Bronnitsy
659,Armstrong-Keebler,770 Veith Pass,+84-839-404-0379,Chợ Mới
660,"Satterfield, Runte and Bauch",1 Ryan Point,+63-133-176-4254,Bangued
661,Howell and Sons,6297 Bunker Hill Trail,+1-144-338-6481,La Ronge
662,Hansen LLC,30580 Columbus Plaza,+353-417-441-1428,Macroom
663,Botsford Group,338 Chive Circle,+81-306-160-2120,Ōtsu-shi
664,Fahey-Abshire,53640 Hanover Pass,+64-172-823-2141,New Plymouth
665,"Rolfson, Kuphal and Ziemann",098 Esch Drive,+359-851-322-4645,Zavet
666,Ortiz Inc,36849 Rusk Parkway,+1-516-459-2023,Great Neck
667,Renner-Emard,37 Toban Street,+55-889-385-1690,Santo Antônio da Platina
668,Boyle-Dach,096 Buhler Point,+7-182-737-2748,Gordeyevka
669,"Corkery, Stehr and Schiller",15843 Becker Park,+51-417-255-2342,Huachos
670,Rice-Gusikowski,009 Lake View Crossing,+46-839-489-7330,Stockholm
671,Senger-Pollich,00308 Colorado Road,+353-147-748-9548,Muff
672,Donnelly-Hayes,518 School Street,+380-147-853-9827,Shums’k
673,Kuhic-Terry,23778 Toban Trail,+62-349-817-2882,Sikur
674,Hilpert and Sons,37 Ronald Regan Alley,+33-659-778-2421,Marne-la-Vallée
675,Grady-Grant,113 Corry Crossing,+86-580-596-4449,Rongmei
676,Walsh-Franecki,24 Toban Plaza,+62-465-865-1391,Pesucen
677,Tillman and Sons,70793 Waywood Way,+1-202-619-5385,Washington
678,Bradtke Group,2344 Marquette Junction,+60-144-239-2211,Melaka
679,Koss LLC,38092 Granby Park,+86-731-447-8270,Dong Liang’erzhuang
680,"Sporer, Champlin and Hermann",2993 Melody Trail,+57-608-443-1027,Cotorra
681,Heaney Inc,85071 4th Center,+86-917-920-0701,Xinchang
682,Herman LLC,9 Morning Parkway,+86-550-860-2062,Huangcun
683,Hammes Group,23723 Westend Center,+47-741-642-1713,Arendal
684,Abshire and Sons,58199 Golden Leaf Way,+63-805-889-3648,Nagiba
685,"Will, DuBuque and Will",87 Rutledge Park,+351-489-402-8017,São Miguel
686,Balistreri Inc,8 Rieder Junction,+86-887-972-7283,Gangba
687,"Sanford, Bauch and Stiedemann",87 Dorton Street,+62-878-572-2837,Karafao
688,Kshlerin Group,63 Warrior Parkway,+223-485-184-7045,Nara
689,Gulgowski Inc,8 Eastlawn Park,+996-624-363-6160,Bishkek
690,Gorczany Inc,2 Kennedy Street,+84-708-460-4727,Sơn Tây
691,Goodwin-Zulauf,38 Becker Place,+86-994-451-9650,Beijie
692,Hoppe-Krajcik,640 Steensland Place,+48-491-433-1021,Karpacz
693,Renner Inc,3058 Hayes Plaza,+86-370-114-3449,Tianyu
694,Kutch LLC,4839 Tomscot Hill,+57-783-545-6893,Barrancas
695,"Corkery, Kling and Rolfson",05731 Everett Crossing,+86-488-564-0216,Meijiang
696,Kautzer-Torphy,57 Thackeray Crossing,+66-708-854-0965,Nai Harn
697,"Sawayn, Carter and Gibson",05314 Dawn Terrace,+62-622-230-9760,Paritjunus
698,Hegmann-Pollich,98 Bay Crossing,+66-940-887-3575,Bang Sao Thong
699,Walker and Sons,69 Golden Leaf Plaza,+51-703-913-0321,Mendoza
700,"O'Connell, Rosenbaum and Pagac",742 Arapahoe Center,+52-704-340-7626,San Isidro
701,Sporer-Glover,1104 Southridge Drive,+356-126-588-4883,Pembroke
702,Goodwin-Weissnat,4 Park Meadow Pass,+86-957-604-1791,Xingyuan
703,"Parker, Feil and Bechtelar",72086 Corben Court,+92-981-981-7617,Jhumra
704,Feeney LLC,4 Delladonna Junction,+86-595-585-3422,Shuikou
705,Rice-Kassulke,4037 Dwight Junction,+63-269-658-1033,Del Monte
706,Ryan Group,059 Blaine Park,+62-841-839-8625,Mor Laok
707,Bernier Inc,2 Heffernan Court,+86-481-620-4348,Shataping
708,Jenkins Inc,8 Bellgrove Plaza,+63-374-458-9246,Calape
709,Rempel and Sons,43898 Kinsman Crossing,+86-284-892-0927,Lingqian
710,"Johnston, Will and Block",71264 Fordem Parkway,+1-375-167-4704,Blainville
711,Runte-Hammes,987 Mallory Place,+86-490-833-8762,Xilian
712,"Walker, Price and Walter",405 Emmet Place,+420-156-636-1588,Vrbno pod Pradědem
713,"Towne, Shields and Harris",235 Nobel Terrace,+216-341-834-0673,Zarzis
714,Feil-Durgan,6 Jenifer Hill,+261-288-708-9566,Farafangana
715,"Heathcote, Mohr and O'Keefe",83347 Meadow Ridge Avenue,+62-250-408-2272,Bendoroto
716,Schaden-Ratke,1 Johnson Parkway,+86-927-954-5488,Guyang
717,Stehr-Dach,39 Amoth Pass,+86-674-720-8162,Xilanqi
718,"Bashirian, Beahan and Kuhlman",524 Graedel Avenue,+84-863-221-2054,Thạnh Phú
719,"Treutel, Weber and Dietrich",05 Glacier Hill Center,+33-435-860-4014,Marly-le-Roi
720,"Ratke, Hahn and Ernser",4334 Blue Bill Park Hill,+55-390-713-1907,Coronel Vivida
721,"Herman, Stehr and Harris",2271 Acker Plaza,+86-738-443-1667,Xinjiang
722,Schultz LLC,58 Grover Parkway,+86-842-553-9505,Qingqu
723,"Koss, Green and Kassulke",57565 Buena Vista Street,+62-706-453-6910,Soko
724,"Sanford, Raynor and Kautzer",0345 Dovetail Crossing,+52-857-213-8594,Los Angeles
725,MacGyver-Parker,3 Sherman Trail,+62-781-356-2464,Cijeungjing Kaler
726,Lehner Group,76 Morningstar Way,+86-627-489-8592,Diaoluoshan
727,Johns-Schultz,26091 Bultman Circle,+420-784-536-7233,Ořechov
728,"Heathcote, Grady and Maggio",12 Independence Lane,+62-958-894-6621,Cikalong
729,Lynch-Mertz,538 Saint Paul Crossing,+357-196-251-8706,Kato Pyrgos
730,Ruecker and Sons,69 Hallows Lane,+62-473-698-1978,Gelang
731,Veum LLC,05 Sloan Park,+351-652-570-5469,Columbeira
732,"Steuber, Simonis and Lemke",1490 Briar Crest Plaza,+1-494-897-5690,Neiba
733,"Berge, Cruickshank and Stoltenberg",404 Ronald Regan Street,+48-788-183-2189,Psary
734,Hyatt-Klein,2 Memorial Terrace,+249-316-293-7467,Geneina
735,Shields Inc,46990 Vernon Place,+81-467-266-1779,Yanai
736,Schinner-Doyle,76 5th Plaza,+33-148-830-8726,Épinal
737,"Spinka, Lueilwitz and McCullough",48 North Hill,+86-913-312-0406,Daguo
738,"Armstrong, Bayer and McClure",65 Nelson Hill,+373-865-149-2919,Donduşeni
739,Walter Group,144 Eliot Alley,+591-888-915-0154,Santa Rosa del Sara
740,"Smitham, Block and Ortiz",762 Schmedeman Junction,+86-100-853-3705,Jiangwan
741,Dietrich-Kozey,039 Graceland Alley,+86-305-310-4374,Jieting
742,"Jenkins, Berge and Wintheiser",8 2nd Junction,+380-388-110-7772,Topory
743,Romaguera-Hilll,813 Summer Ridge Road,+1-791-951-6504,Oxford
744,"Bartoletti, Wisoky and Nitzsche",06 Mesta Plaza,+62-793-458-9500,Barat
745,Murazik-Williamson,716 Gulseth Parkway,+62-118-266-2702,Bangilan
746,Keebler-Nikolaus,0 Eggendart Avenue,+55-801-463-6416,São Roque
747,Crist and Sons,48 Meadow Vale Court,+62-495-866-5834,Pepayan
748,Hoppe-Spencer,366 Rieder Center,+47-557-235-5281,Oslo
749,Kassulke Group,8 Oakridge Crossing,+86-771-817-3284,Lingxi
750,Windler-Ferry,16 Roth Way,+52-703-573-2857,Benito Juarez
751,Schultz Inc,204 Northview Hill,+850-248-493-1846,Kanggye-si
752,Gleason Group,0089 Summer Ridge Hill,+1-544-547-1135,Joliette
753,"Doyle, Satterfield and Langworth",676 Dryden Crossing,+84-908-553-4413,Minh Lương
754,Abbott Group,67429 Heffernan Junction,+420-271-390-1317,Chroustovice
755,"Upton, Emard and Reinger",4935 Lakeland Center,+212-474-741-6156,Hassi Berkane
756,Macejkovic Group,0831 Village Green Junction,+48-122-109-3393,Włoszczowa
757,Cummings-Carroll,2 Northwestern Place,+62-552-224-0538,Sidamukti
758,"Volkman, Grimes and Kassulke",1979 Lotheville Junction,+46-653-674-3659,Motala
759,Monahan-Buckridge,6 Calypso Lane,+62-872-597-7860,Apuri
760,Beahan-Braun,27497 Union Avenue,+420-368-412-6881,Francova Lhota
761,"Macejkovic, Dicki and Rau",477 Elgar Court,+383-387-135-9940,Gjinoc
762,"Leuschke, Heidenreich and Boehm",3 Kings Court,+385-286-725-7343,Srinjine
763,Skiles-O'Hara,166 Oxford Court,+62-777-532-1236,Banjar Sengguan
764,Watsica LLC,8 Londonderry Crossing,+45-936-586-9368,København
765,Larkin-Veum,79159 Jenna Alley,+57-999-491-5262,Caicedonia
766,Pacocha LLC,1 Bultman Drive,+81-220-364-3988,Itoigawa
767,Fay-Schmitt,8 Mallard Park,+351-251-101-6504,Crasto
768,Waelchi-Ritchie,6305 Porter Center,+234-955-443-4688,Oke Mesi
769,Sanford and Sons,4 Old Shore Circle,+62-265-174-0121,Seseng
770,Roberts-McClure,57695 Dovetail Crossing,+81-415-138-4589,Takayama
771,Spinka-Greenfelder,7436 Westerfield Place,+502-700-994-1761,Puerto Barrios
772,Beatty-Lehner,8 Swallow Center,+86-478-460-9873,Dengzhuang
773,Stroman-Schuppe,41 Algoma Street,+1-312-238-1440,Chicago
774,Steuber LLC,342 Nelson Pass,+57-405-311-6315,Maní
775,Heidenreich-Spinka,0 Sommers Trail,+33-946-685-2370,Toul
776,Thompson and Sons,65 Gina Place,+62-301-835-9003,Semampir
777,"Sawayn, Rau and Vandervort",202 Graceland Point,+966-716-397-5719,Umm as Sāhik
778,"Bogan, Veum and Carter",547 Hagan Court,+55-268-746-3738,Limeira
779,Dooley-Cronin,2 Sloan Court,+31-725-735-7377,IJmuiden
780,Nikolaus and Sons,57677 Stuart Avenue,+370-677-390-0130,Jieznas
781,Kuhlman Group,2 Hazelcrest Junction,+52-159-177-7903,Guadalupe Victoria
782,Kessler-Denesik,80732 Rieder Trail,+63-225-999-9706,Rotunda
783,"Morissette, Gibson and Lynch",8 Evergreen Junction,+387-269-262-5173,Liješnica
784,"Zboncak, Keeling and Kuhlman",0 Corben Street,+54-441-161-7129,Lanús
785,"Hermann, Wehner and Sipes",5 Ridge Oak Avenue,+380-132-854-2285,Staryy Merchyk
786,O'Reilly and Sons,5 High Crossing Trail,+62-399-878-7126,Tenggina Daya
787,Cartwright LLC,87119 Texas Drive,+63-369-550-3239,Cabittaogan
788,"Abshire, Ward and Hegmann",228 Kinsman Plaza,+47-826-621-0290,Steinkjer
789,Gusikowski-Shanahan,1 Bluejay Parkway,+231-500-361-0829,New Yekepa
790,"Crist, Mitchell and Effertz",8 Quincy Lane,+86-336-945-5518,Jiangwan
791,"Renner, Turner and Corkery",16704 Bonner Pass,+86-652-156-3471,Machang
792,"Gusikowski, Terry and White",2755 Loeprich Center,+86-352-750-2031,Tuhe
793,Bode LLC,75 Packers Lane,+55-559-602-5095,Jardim
794,Bartell and Sons,2991 Shoshone Pass,+81-716-726-3031,Izumi
795,Gutkowski LLC,555 Vidon Junction,+51-201-762-4575,Laramate
796,Roberts-Hessel,62669 Oak Parkway,+7-905-705-9947,Kvartsitnyy
797,Gottlieb Inc,2 Kipling Center,+62-937-182-4605,Funga
798,"Heidenreich, Boehm and Ratke",797 Coolidge Crossing,+420-965-771-8024,Luka nad Jihlavou
799,Jaskolski-Boyer,8231 Westridge Road,+52-878-588-3073,El Progreso
800,Pfeffer-Lueilwitz,6 Steensland Park,+7-699-542-8212,Veshnyaki
801,Ryan-Bruen,25 Lindbergh Trail,+1-704-193-6055,Charlotte
802,Kihn Group,0505 Shopko Pass,+86-120-109-7184,Huzhuang
803,Hagenes-Windler,341 Quincy Street,+48-337-950-5114,Mieścisko
804,Wolff-Okuneva,2985 Sachtjen Center,+86-342-707-8153,Baohe
805,Erdman-Tremblay,557 Canary Circle,+57-889-603-3476,Remedios
806,Gorczany Group,721 3rd Parkway,+234-149-345-8979,Jibiya
807,"Howell, Keeling and Leannon",4162 Moland Lane,+86-413-122-9581,Baimiao
808,McClure Group,0 Cambridge Place,+62-114-981-9442,Sumbersewu
809,"Leannon, Osinski and Donnelly",24480 Summerview Road,+86-707-821-7053,Changting
810,Von and Sons,2 Algoma Crossing,+506-265-804-5558,Aserrí
811,Senger and Sons,77518 Pawling Avenue,+351-250-926-8791,Castanheira do Campo
812,Padberg-Connelly,14 Forest Dale Crossing,+92-191-163-3611,Samaro
813,Bailey-Bins,0 Hagan Alley,+63-134-256-1562,Balagui
814,"Kris, Bogisich and Pacocha",662 Pankratz Avenue,+7-343-532-9571,Mozhaysk
815,"Kozey, Goodwin and Mann",44668 Schurz Way,+46-485-991-6875,Örebro
816,Kuhic Group,65019 Forest Way,+263-856-695-1337,Macheke
817,Schuppe Inc,12037 School Street,+27-564-628-2859,Tarkastad
818,Fadel LLC,4664 Ruskin Point,+86-361-381-3706,Nansan
819,Walsh Group,19655 Packers Road,+84-327-970-6337,Núi Đối
820,Larkin Inc,85421 Starling Avenue,+81-515-699-0038,Akune
821,Brekke Inc,6731 Arizona Park,+81-805-856-5680,Suita
822,Skiles-Huels,366 Stephen Place,+86-886-528-6549,Lingbei
823,"Rowe, DuBuque and Hermann",40954 Stone Corner Court,+47-790-986-7673,Oslo
824,"Legros, Durgan and Daugherty",9640 Lillian Trail,+62-590-305-7153,Mislak
825,Windler-Stiedemann,17905 Moulton Hill,+46-625-619-2995,Södertälje
826,Doyle-Stamm,4804 Twin Pines Terrace,+86-409-415-5010,Guazhou
827,Mills-Hermiston,125 Dayton Road,+1-408-303-3837,San Jose
828,Bins and Sons,56916 Wayridge Pass,+66-511-356-2222,Nakhon Si Thammarat
829,Fay-DuBuque,006 Morningstar Way,+62-845-840-4886,Ebak
830,"McClure, Torp and Smitham",8813 Sherman Crossing,+62-217-198-8031,Idi Rayeuk
831,Walker Inc,24 Alpine Trail,+66-907-313-3217,Nam Som
832,"Pfeffer, Abernathy and Watsica",848 Duke Pass,+62-242-365-0322,Uiasa
833,Pfannerstill-Huels,476 Talmadge Trail,+57-449-228-2777,Guamal
834,Pollich and Sons,829 Ilene Avenue,+62-261-615-6243,Bantengan
835,Lang Group,74 Stephen Court,+66-810-697-4132,Saba Yoi
836,Quitzon-Gislason,2687 Judy Terrace,+48-537-241-5396,Imielin
837,Hessel Group,55003 Lerdahl Way,+595-127-974-1637,Itacurubí del Rosario
838,Hauck-Abshire,97 Little Fleur Court,+380-605-238-4787,Bilovods'k
839,Zemlak-Cartwright,1 Forster Junction,+86-730-961-2362,Pujiang
840,Auer-Bailey,52 Dottie Avenue,+51-309-865-2772,Masma
841,Harvey Group,49 Porter Plaza,+62-533-296-0463,Keputran
842,"Block, Lindgren and Bergstrom",27 Granby Plaza,+63-959-615-5783,Malita
843,Gutmann-Quitzon,5358 Bultman Street,+54-552-981-2016,Bernardo Larroudé
844,Gerhold Inc,1 Walton Crossing,+593-112-620-4462,Pedro Carbo
845,"Spinka, Moen and Feest",668 Mariners Cove Road,+52-750-594-6048,San Jose
846,"Graham, Goyette and DuBuque",3 Glendale Crossing,+93-915-989-6159,Pul-e Khumrī
847,Lind Inc,93 Thierer Trail,+54-603-968-5088,Cipolletti
848,"Pacocha, Spencer and Skiles",3 Fulton Avenue,+351-324-499-5886,Arrentela
849,"Farrell, Purdy and Lueilwitz",1 Muir Alley,+63-664-534-3975,Pinaring
850,Boyer LLC,1599 Melby Junction,+66-434-545-5834,Chanthaburi
851,Hauck-Schneider,14 Sauthoff Lane,+98-271-401-7985,Falāvarjān
852,"Spencer, Shields and Paucek",4 Carberry Center,+86-876-905-6580,Xinji
853,"Kertzmann, Considine and Mayer",958 Graedel Junction,+86-511-377-9098,Zicheng
854,Kertzmann and Sons,591 Saint Paul Point,+46-520-610-4748,Partille
855,Weissnat-Orn,294 La Follette Trail,+63-388-492-0388,San Juan
856,Bauch-Kuvalis,507 Hollow Ridge Terrace,+54-888-894-7479,Mendoza
857,"Bergstrom, Baumbach and Dietrich",9 Elmside Parkway,+62-340-256-4706,Pulaupanggung
858,Renner Inc,09 Novick Way,+41-719-814-7062,Basel
859,"Schiller, Nikolaus and White",3267 Moose Avenue,+218-338-484-6475,Al Jaghbūb
860,"Romaguera, McDermott and McLaughlin",9 Banding Trail,+355-402-256-3478,Grekan
861,"Dooley, Schmitt and Waelchi",86002 Anderson Parkway,+86-276-277-9175,Liaobu
862,"Predovic, Walter and Blanda",91245 Thierer Junction,+86-643-778-7885,Futian
863,Parker-Huels,4 Elgar Way,+86-628-600-2636,Yingkeng
864,"Nicolas, Treutel and Stroman",2 Utah Crossing,+62-647-609-6415,Kentongan
865,Koch Inc,2769 Heath Road,+33-995-787-8436,Montpellier
866,"Rempel, O'Kon and Torphy",39 Forster Avenue,+86-185-204-9654,Xiagang
867,"Hills, Rempel and Moen",994 Eastwood Circle,+86-455-987-5917,Ebu
868,Murphy LLC,72602 Little Fleur Center,+86-348-667-1427,Gangba
869,Wintheiser Group,4 Anzinger Street,+351-689-313-4171,Quinta
870,Fadel-Friesen,979 Nova Crossing,+86-556-986-5248,Juren
871,Breitenberg-Kreiger,099 Dakota Drive,+34-938-966-8911,Valencia
872,"Grimes, Runolfsson and Lowe",419 Grover Avenue,+46-308-706-8729,Luleå
873,Legros Inc,52 Northfield Avenue,+7-751-649-3412,Novogurovskiy
874,"Denesik, Heidenreich and Stoltenberg",578 Anhalt Court,+62-234-215-1023,Cikadu
875,Lynch Group,3500 Stoughton Point,+48-525-737-7134,Niechanowo
876,Murphy-Denesik,65119 Mosinee Trail,+351-108-572-7066,Água de Pau
877,"Cartwright, Mosciski and Kuphal",8626 Scofield Court,+233-197-771-6485,Wassa-Akropong
878,Grant Group,323 Melby Street,+256-858-149-6465,Ntungamo
879,Adams and Sons,28 Ilene Trail,+81-934-311-0808,Kurashiki
880,"Gorczany, Ferry and Koss",77 Canary Plaza,+225-190-895-6631,Agnibilékrou
881,"Green, Torp and Rutherford",60 Elmside Pass,+63-405-936-7189,Maibu
882,Johnston-Morissette,532 Hovde Hill,+1-319-356-4557,Saint-Bruno-de-Guigues
883,"Stoltenberg, Wolf and Bahringer",4210 Mosinee Crossing,+62-861-677-6382,Koronganayam
884,"Kris, Skiles and Homenick",1660 East Crossing,+1-813-582-3745,Tampa
885,"Ortiz, O'Keefe and Durgan",698 Ridgeview Alley,+1-305-677-8166,Miami
886,"Kshlerin, Braun and Green",48540 Buell Pass,+675-131-896-3041,Kieta
887,Lockman-Waters,57 Helena Road,+86-675-328-3391,Dolati
888,Renner Group,17 Burrows Terrace,+86-724-959-7183,Gaotuan
889,"Mueller, Farrell and Denesik",6334 Springview Hill,+86-167-298-6353,Moshiyi
890,"Hilpert, Gutkowski and Runolfsson",0 Union Hill,+92-181-433-9459,Tānk
891,Toy Inc,120 Kingsford Junction,+62-627-718-3668,Penambangan
892,Harris-Purdy,5023 Brown Park,+62-950-540-9507,Cikarang
893,"Beahan, Trantow and Rogahn",4428 Waubesa Drive,+62-804-219-7177,Selopuro
894,Okuneva-Mayert,7 Forest Dale Way,+62-738-514-3058,Cisalakdesa
895,Murphy Inc,25413 Hollow Ridge Avenue,+240-359-176-6135,Ebebiyin
896,MacGyver-Steuber,0836 Larry Avenue,+81-237-917-1597,Kiryū
897,"O'Keefe, Ankunding and Abbott",4 Tennyson Street,+963-727-262-1608,Al Khafsah
898,Goodwin Inc,142 Ohio Point,+509-211-364-4726,Pignon
899,Kirlin-Maggio,6 Oak Valley Trail,+55-861-777-2642,Itajaí
900,"Kuhic, Runolfsdottir and Von",47090 Lakeland Circle,+62-903-248-4955,Boro
901,Fay and Sons,13731 Red Cloud Drive,+1-249-676-3577,Aldergrove
902,Kemmer LLC,87829 Norway Maple Avenue,+242-281-694-8972,Owando
903,Casper Inc,21 Dakota Park,+227-874-375-6994,Matamey
904,Prosacco LLC,99 Kipling Hill,+1-603-768-7741,Smiths Falls
905,"Fahey, Marks and Konopelski",74234 Sachtjen Place,+49-656-856-1422,München
906,Goodwin Inc,889 Sunbrook Park,+62-215-584-1929,Barabedang
907,"Wisozk, Nikolaus and Hauck",07 Blue Bill Park Place,+92-403-803-9320,Hujra
908,Block and Sons,55598 Golf Course Crossing,+675-696-198-6794,Ialibu
909,Cremin Inc,644 Pleasure Court,+51-422-366-9266,Congas
910,Carroll-Feil,9 Vermont Street,+86-313-116-6117,Ciyun
911,Haag-Zemlak,079 Banding Lane,+51-702-968-2078,Churubamba
912,"Watsica, McGlynn and Hilpert",5456 Anderson Terrace,+976-386-570-8195,Tsetsegnuur
913,Becker-Bogan,2168 Lawn Center,+7-930-244-8398,Shebalino
914,Dicki Inc,23 Coleman Court,+60-415-514-2371,Taiping
915,"Hirthe, Rempel and Sanford",21 Memorial Alley,+355-554-937-5132,Xarrë
916,Cormier Inc,8778 Blaine Road,+63-276-409-4528,Gabao
917,Monahan Inc,92 Fuller Plaza,+591-945-268-1948,Sucre
918,"Kautzer, Reilly and Sauer",69018 Bay Center,+63-314-292-9492,Glan
919,"Kulas, Hartmann and Thiel",0684 Sachtjen Way,+86-273-688-3752,Wenlin
920,"Schaefer, Franecki and Kozey",63898 Eagle Crest Road,+420-240-870-4448,Všenory
921,Buckridge-Walker,56650 Farwell Pass,+86-785-564-3231,Huwei
922,Walsh Group,396 High Crossing Circle,+55-147-684-4327,Paraguaçu Paulista
923,Konopelski and Sons,072 Pankratz Center,+48-116-690-3988,Sypniewo
924,Blanda LLC,4 Hooker Court,+7-370-386-6262,Novogurovskiy
925,Tremblay-Denesik,95891 Hansons Point,+86-620-937-5719,Futian
926,Roob-Kassulke,679 Stoughton Hill,+86-595-960-7231,Nanshui
927,Nader Group,772 Evergreen Pass,+7-190-588-3046,Gorelovo
928,Predovic Inc,7200 Delaware Place,+55-976-774-8126,Santaluz
929,Schuppe and Sons,4 Leroy Court,+504-552-820-0892,El Socorro
930,Schuppe Group,53526 Moose Point,+351-845-995-1059,Praia da Vagueira
931,Kshlerin-Schmidt,87864 Carpenter Center,+1-858-546-3265,Oceanside
932,Toy-Upton,2 Summer Ridge Hill,+55-190-580-7953,Carlos Barbosa
933,"Mayert, Schneider and Schroeder",69871 Merchant Road,+1-245-781-4931,Martensville
934,Shanahan-Wyman,3 Milwaukee Place,+380-807-468-4770,Denyshi
935,Schiller and Sons,7186 6th Center,+216-762-114-9100,El Ksour
936,Bednar LLC,93 Merry Pass,+351-613-188-0009,Figueiredo
937,Howe-VonRueden,365 Sauthoff Hill,+86-689-661-6612,Huliao
938,Graham-Franecki,208 Swallow Alley,+62-160-820-6724,Bulakgebang
939,"Ziemann, Wilkinson and Christiansen",91177 Sullivan Terrace,+86-146-747-7941,Hongshanzui
940,Windler and Sons,4 Mccormick Center,+62-163-189-2145,Ngembak
941,"Blick, Shields and Effertz",55 Huxley Junction,+385-653-997-2221,Slatina
942,DuBuque-Zieme,9443 Barnett Crossing,+52-616-518-6930,Benito Juarez
943,Davis Inc,71 Lakewood Gardens Street,+351-234-237-9490,Mealhada
944,Renner-Schmeler,64 Prairieview Place,+31-321-474-4819,Amsterdam
945,Doyle-Renner,12043 Longview Street,+420-606-315-6091,Zlechov
946,"Friesen, Gusikowski and Goodwin",1 Steensland Trail,+258-856-629-1186,António Enes
947,Hintz Group,6 Pine View Pass,+351-274-531-7704,Afonsoeiro
948,Cormier and Sons,7 Melrose Street,+33-700-166-0159,Aubergenville
949,"Lubowitz, Durgan and Schoen",210 Maple Point,+62-483-856-2307,Kujang
950,"Kuhn, Purdy and Moore",91143 Troy Center,+998-159-692-9367,Oltinko’l
951,Kemmer-Bruen,80 Packers Hill,+48-865-471-5224,Marianowo
952,Goyette-Stiedemann,7 Sloan Hill,+86-410-525-1656,Puzi
953,Marvin LLC,76 Northview Pass,+62-917-708-6397,Umburarameha
954,Grimes-Marquardt,10 Shasta Place,+81-533-858-0090,Tadotsu
955,Bernhard-Kilback,1991 Maywood Terrace,+351-397-830-6600,Cova da Iria
956,Larkin and Sons,698 Forest Run Crossing,+86-874-924-6429,Dabachang
957,Hagenes Group,495 Center Street,+60-275-223-0501,Kuala Lumpur
958,Dibbert-Robel,380 Muir Park,+86-609-131-6734,Nanxi
959,"Kovacek, Bergstrom and Hamill",06 Westend Drive,+66-147-144-6547,Phanom Sarakham
960,Tillman and Sons,60 Elka Crossing,+47-407-239-3421,Oslo
961,"Braun, Schinner and Emmerich",1855 Paget Hill,+64-371-573-2803,Coromandel
962,Feest LLC,53850 Troy Avenue,+33-196-247-2748,Rungis
963,"Heidenreich, Sipes and Kuhic",1854 1st Terrace,+63-253-418-7731,Dumalinao
964,Little and Sons,0 Arizona Circle,+48-220-110-3656,Rzozów
965,Lehner-Crooks,16236 Mendota Junction,+359-350-895-5610,Gorna Oryakhovitsa
966,Gerhold-Hilll,7553 Dennis Plaza,+380-420-813-9624,Kirovs’k
967,Feest-Blick,07 Killdeer Plaza,+1-336-104-9661,Greensboro
968,"Sporer, Bosco and Bartell",98190 Park Meadow Alley,+7-289-313-3710,Kokshetau
969,"Frami, Mitchell and Turcotte",32 Gateway Drive,+66-589-183-7287,Bang Klam
970,"Smitham, Homenick and Carroll",982 Waxwing Way,+33-295-922-8036,Roissy Charles-de-Gaulle
971,Gleason LLC,18355 Northfield Point,+46-547-343-8679,Skara
972,"Wolf, Smitham and Bartoletti",90 Vera Plaza,+62-647-545-3360,Senggreng
973,Kovacek Group,23408 Arizona Alley,+57-206-762-6077,Puerto Nariño
974,Witting-Schimmel,4295 Lindbergh Lane,+30-672-533-3487,Perivóli
975,Kassulke-Leffler,253 Arizona Place,+84-202-939-6778,Thành Phố Phủ Lý
976,Erdman Group,796 Elmside Avenue,+7-611-592-9686,Ochër
977,"Carter, Denesik and Cartwright",48800 Charing Cross Street,+86-469-577-6248,Balbagay
978,"Rodriguez, Vandervort and Gutmann",4454 5th Junction,+233-710-247-3984,Bekwai
979,"Stokes, Raynor and Yost",963 Oxford Alley,+504-593-639-7220,Santa Rosa de Aguán
980,Runolfsdottir-Buckridge,79 High Crossing Circle,+502-709-334-2639,San Antonio Aguas Calientes
981,Jacobson-Runolfsdottir,09730 Canary Court,+62-823-515-1727,Santong
982,Marks Inc,589 Waubesa Alley,+46-710-588-8239,Pajala
983,Pfeffer-Kunze,440 Morningstar Drive,+993-137-416-4047,Serhetabat
984,"Parisian, Feil and Boehm",997 Donald Pass,+1-635-735-4122,Kitchener
985,Kautzer-Beahan,38519 Declaration Road,+216-582-500-2951,La Mohammedia
986,"Stiedemann, Haley and Kreiger",58804 Commercial Circle,+55-975-920-8272,Regente Feijó
987,Bruen and Sons,49418 Anniversary Lane,+47-789-449-4562,Oslo
988,Boyle-Zemlak,7817 Old Shore Alley,+7-829-934-7163,Vysotskoye
989,Thompson-Hyatt,90210 Muir Terrace,+52-117-266-5984,Guadalupe Victoria
990,Bechtelar LLC,13 Claremont Point,+62-642-537-5318,Kadugadung
991,"Cummings, Armstrong and Wyman",074 American Ash Junction,+357-417-106-5421,Kíti
992,Nolan-Watsica,10190 Riverside Center,+505-487-965-1952,Rama
993,Wehner-Anderson,750 Hoffman Pass,+377-209-707-2388,La Condamine
994,Champlin-Brekke,9 Susan Center,+55-246-403-0522,Pacatuba
995,Johnson-Thompson,8 Eagan Center,+86-510-161-1066,Lianghe
996,West Inc,33020 Sunbrook Park,+57-723-732-9393,Cértegui
997,Corkery-Toy,99127 Crest Line Court,+48-281-926-6174,Targowisko
998,Medhurst-Corkery,22955 Dennis Road,+976-637-218-2201,Nuga
999,Gorczany-Lebsack,0 2nd Place,+1-751-408-5102,Burnaby
1000,Welch LLC,762 Warbler Lane,+81-837-640-0971,Nyūzen
